GPS BIIR-2  (PRN 13)    
1 24876U 97035A   21254.15721784  .00000020  00000-0  00000-0 0  9992
2 24876  55.4781 166.5701 0052207  53.7362 306.7869  2.00562344177052
GPS BIIR-4  (PRN 20)    
1 26360U 00025A   21254.54476531 -.00000002  00000-0  00000-0 0  9996
2 26360  53.8378  90.4107 0055027 173.1247 193.8553  2.00565811156383
GPS BIIR-8  (PRN 16)    
1 27663U 03005A   21254.56622028  .00000018  00000-0  00000-0 0  9996
2 27663  55.7106 284.1265 0120559  38.0416 323.4097  2.00554084136424
GPS BIIR-9  (PRN 21)    
1 27704U 03010A   21254.28622111 -.00000056  00000-0  00000-0 0  9993
2 27704  54.9039  34.6298 0242458 297.4174  77.7236  2.00567154135217
GPS BIIR-10 (PRN 22)    
1 28129U 03058A   21253.84858749  .00000003  00000-0  00000-0 0  9997
2 28129  53.6475  93.0842 0069320 307.4754  51.9680  2.00555590129888
GPS BIIR-11 (PRN 19)    
1 28190U 04009A   21254.25362625 -.00000075  00000-0  00000-0 0  9991
2 28190  56.1478 345.0466 0089322 111.5249 184.1724  2.00566568128048
GPS BIIR-13 (PRN 02)    
1 28474U 04045A   21254.32432022 -.00000056  00000-0  00000-0 0  9992
2 28474  55.2366  34.6634 0204878 274.2242 344.6252  2.00554373123531
GPS BIIRM-1 (PRN 17)    
1 28874U 05038A   21254.32393722 -.00000074  00000-0  00000-0 0  9992
2 28874  56.2265 342.4633 0137855 270.7310  99.4244  2.00565490116945
GPS BIIRM-2 (PRN 31)    
1 29486U 06042A   21254.26695543  .00000055  00000-0  00000-0 0  9995
2 29486  54.7581 220.3842 0101090  15.5051 227.3322  2.00571084109491
GPS BIIRM-3 (PRN 12)    
1 29601U 06052A   21252.88130714  .00000019  00000-0  00000-0 0  9995
2 29601  55.7107 283.1217 0080117  69.9033 291.0132  2.00562575108487
GPS BIIRM-4 (PRN 15)    
1 32260U 07047A   21253.18418547  .00000021  00000-0  00000-0 0  9995
2 32260  53.2466 152.1595 0134398  58.1853 303.1830  2.00562905101893
GPS BIIRM-5 (PRN 29)    
1 32384U 07062A   21254.86186205 -.00000077  00000-0  00000+0 0  9999
2 32384  56.3365 343.1684 0017904 138.7915 121.6329  2.00574750100683
GPS BIIRM-6 (PRN 07)    
1 32711U 08012A   21254.09832233  .00000054  00000-0  00000-0 0  9998
2 32711  54.5125 219.3897 0154528 228.3817 130.2635  2.00555547 98856
GPS BIIRM-8 (PRN 05)    
1 35752U 09043A   21254.06456024  .00000006  00000-0  00000-0 0  9995
2 35752  54.8648  96.7964 0059037  55.3142 292.5265  2.00573894 88458
GPS BIIF-1  (PRN 25)    
1 36585U 10022A   21253.41716220  .00000023  00000-0  00000-0 0  9993
2 36585  54.9872 278.8145 0096660  54.6822 308.7047  2.00575006 82681
GPS BIIF-2  (PRN 01)    
1 37753U 11036A   21254.29271687 -.00000047  00000-0  00000-0 0  9994
2 37753  56.4672  39.5924 0109011  50.1214 307.0306  2.00563618 74375
GPS BIIF-3  (PRN 24)    
1 38833U 12053A   21254.27913598  .00000050  00000-0  00000-0 0  9999
2 38833  53.5632 214.7948 0113836  42.4365 318.4154  2.00558299 64547
GPS BIIF-4  (PRN 27)    
1 39166U 13023A   21253.14615259 -.00000065  00000-0  00000-0 0  9992
2 39166  55.8663 338.9911 0093530  35.3343 325.3347  2.00567436 60966
GPS BIIF-5  (PRN 30)    
1 39533U 14008A   21253.14555528  .00000049  00000-0  00000-0 0  9997
2 39533  53.6645 220.3193 0054603 205.6854 154.0174  2.00565671 54768
GPS BIIF-6  (PRN 06)    
1 39741U 14026A   21254.42102006 -.00000048  00000-0  00000+0 0  9998
2 39741  56.4339  39.1145 0023643 299.2013  60.5703  2.00575654 53635
GPS BIIF-7  (PRN 09)    
1 40105U 14045A   21254.01181156  .00000017  00000-0  00000+0 0  9998
2 40105  54.6373 157.9628 0019148 105.3998 254.8687  2.00558662 52063
GPS BIIF-8  (PRN 03)    
1 40294U 14068A   21253.38116560  .00000014  00000-0  00000+0 0  9995
2 40294  55.6105  99.0166 0036762  53.7304 306.6918  2.00551748 50279
GPS BIIF-9  (PRN 26)    
1 40534U 15013A   21254.01843651  .00000025  00000-0  00000+0 0  9994
2 40534  53.8920 276.2662 0060260  14.6662 345.5482  2.00569330 47353
GPS BIIF-10 (PRN 08)    
1 40730U 15033A   21254.17815268 -.00000070  00000-0  00000-0 0  9996
2 40730  55.3713 337.9112 0064557   1.1578 358.9102  2.00566397 45099
GPS BIIF-11 (PRN 10)    
1 41019U 15062A   21254.22849173  .00000008  00000-0  00000-0 0  9997
2 41019  55.6029  98.8202 0070378 213.3961 146.2349  2.00563306 42935
GPS BIIF-12 (PRN 32)    
1 41328U 16007A   21253.82138684  .00000019  00000-0  00000-0 0  9995
2 41328  54.8623 158.5717 0052488 225.8234 133.8002  2.00558356 40932
GPS BIII-1  (PRN 04)    
1 43873U 18109A   21254.63497708  .00000012  00000-0  00000-0 0  9995
2 43873  55.0434 160.8997 0014148 194.3827 285.4328  2.00560394 20182
GPS BIII-2  (PRN 18)    
1 44506U 19056A   21254.70209566 -.00000049  00000-0  00000-0 0  9993
2 44506  55.5357  40.1575 0018926 175.4759 253.6042  2.00566558 15181
GPS BIII-3  (PRN 23)    
1 45854U 20041A   21254.67383267  .00000004  00000-0  00000-0 0  9993
2 45854  55.3178  97.4249 0015732 160.9826 190.1560  2.00563776  9144
GPS BIII-4  (PRN 14)    
1 46826U 20078A   21254.23082983  .00000020  00000-0  00000-0 0  9994
2 46826  54.7616 281.4170 0011017 190.1942 170.0959  2.00566445  6612
